[{"OBJECT_NAME":"OTB","OBJECT_ID":"2019-036C","EPOCH":"2026-03-09T21:12:23.351040","MEAN_MOTION":14.5700145,"ECCENTRICITY":0.00109838,"INCLINATION":23.9955,"RA_OF_ASC_NODE":249.3204,"ARG_OF_PERICENTER":354.045,"MEAN_ANOMALY":5.991,"EPHEMERIS_TYPE":0,"CLASSIFICATION_TYPE":"U","NORAD_CAT_ID":44341,"ELEMENT_SET_NO":999,"REV_AT_EPOCH":35687,"BSTAR":0.00031296152,"MEAN_MOTION_DOT":1.652e-5,"MEAN_MOTION_DDOT":0},{"OBJECT_NAME":"CBERS 1 DEB","OBJECT_ID":"1999-057NS","EPOCH":"2026-03-09T20:58:03.339264","MEAN_MOTION":14.52378789,"ECCENTRICITY":0.00374584,"INCLINATION":98.2654,"RA_OF_ASC_NODE":205.4226,"ARG_OF_PERICENTER":150.4828,"MEAN_ANOMALY":337.0162,"EPHEMERIS_TYPE":0,"CLASSIFICATION_TYPE":"U","NORAD_CAT_ID":30783,"ELEMENT_SET_NO":999,"REV_AT_EPOCH":99652,"BSTAR":0.0017143789,"MEAN_MOTION_DOT":7.006e-5,"MEAN_MOTION_DDOT":0}]
